{"type": "FeatureCollection", "features": [ {"type": "Feature", "properties": {"norad_id": 17070, "name": "POLAR BEAR", "group": "nnss", "lat": -48.060964721649526, "lon": -176.61439647174524, "alt_km": 1017.2976563019856, "timestamp": "2025-12-11T18:59:46.341837+00:00", "meta": {"OBJECT_NAME": "POLAR BEAR", "OBJECT_ID": "1986-088A", "EPOCH": "2025-12-11T02:21:33.969312", "MEAN_MOTION": 13.75250284, "ECCENTRICITY": 0.00408727, "INCLINATION": 89.6175, "RA_OF_ASC_NODE": 183.8395, "ARG_OF_PERICENTER": 123.9989, "MEAN_ANOMALY": 358.2379, "EPHEMERIS_TYPE": 0, "CLASSIFICATION_TYPE": "U", "NORAD_CAT_ID": 17070, "ELEMENT_SET_NO": 999, "REV_AT_EPOCH": 95956, "BSTAR": 0.00014201989, "MEAN_MOTION_DOT": 1.48e-06, "MEAN_MOTION_DDOT": 0}, "tle": {"line1": "1 17070U 86088A   25345.09830983  .00000148  00000+0  14202-3 0  9998", "line2": "2 17070  89.6175 183.8395 0040872 123.9989 358.2379 13.75250284959560"}}, "geometry": {"type": "Point", "coordinates": [-176.61439647174524, -48.060964721649526]}}, {"type": "Feature", "properties": {"norad_id": 18361, "name": "OSCAR 27", "group": "nnss", "lat": -45.92169031129109, "lon": 79.62359210601586, "alt_km": 1093.8712471714443, "timestamp": "2025-12-11T18:59:46.341856+00:00", "meta": {"OBJECT_NAME": "OSCAR 27", "OBJECT_ID": "1987-080A", "EPOCH": "2025-12-11T06:43:35.862816", "MEAN_MOTION": 13.44906365, "ECCENTRICITY": 0.01027925, "INCLINATION": 90.3742, "RA_OF_ASC_NODE": 79.2178, "ARG_OF_PERICENTER": 228.0163, "MEAN_ANOMALY": 131.2195, "EPHEMERIS_TYPE": 0, "CLASSIFICATION_TYPE": "U", "NORAD_CAT_ID": 18361, "ELEMENT_SET_NO": 999, "REV_AT_EPOCH": 87537, "BSTAR": 0.00027240869, "MEAN_MOTION_DOT": 1.72e-06, "MEAN_MOTION_DDOT": 0}, "tle": {"line1": "1 18361U 87080A   25345.28027619  .00000172  00000+0  27241-3 0  9994", "line2": "2 18361  90.3742  79.2178 0102792 228.0163 131.2195 13.44906365875376"}}, "geometry": {"type": "Point", "coordinates": [79.62359210601586, -45.92169031129109]}}, {"type": "Feature", "properties": {"norad_id": 18362, "name": "OSCAR 29", "group": "nnss", "lat": -32.19696388293316, "lon": 79.93210329413363, "alt_km": 1081.9038417586535, "timestamp": "2025-12-11T18:59:46.341867+00:00", "meta": {"OBJECT_NAME": "OSCAR 29", "OBJECT_ID": "1987-080B", "EPOCH": "2025-12-11T06:55:32.035008", "MEAN_MOTION": 13.44448075, "ECCENTRICITY": 0.01038522, "INCLINATION": 90.3753, "RA_OF_ASC_NODE": 79.6768, "ARG_OF_PERICENTER": 251.3776, "MEAN_ANOMALY": 162.5523, "EPHEMERIS_TYPE": 0, "CLASSIFICATION_TYPE": "U", "NORAD_CAT_ID": 18362, "ELEMENT_SET_NO": 999, "REV_AT_EPOCH": 87490, "BSTAR": 0.00023756513, "MEAN_MOTION_DOT": 1.5e-06, "MEAN_MOTION_DDOT": 0}, "tle": {"line1": "1 18362U 87080B   25345.28856522  .00000150  00000+0  23757-3 0  9992", "line2": "2 18362  90.3753  79.6768 0103852 251.3776 162.5523 13.44448075874904"}}, "geometry": {"type": "Point", "coordinates": [79.93210329413363, -32.19696388293316]}}, {"type": "Feature", "properties": {"norad_id": 19070, "name": "OSCAR 23", "group": "nnss", "lat": 21.881120526802658, "lon": -163.50747354389773, "alt_km": 1024.579755185072, "timestamp": "2025-12-11T18:59:46.341877+00:00", "meta": {"OBJECT_NAME": "OSCAR 23", "OBJECT_ID": "1988-033A", "EPOCH": "2025-12-11T04:05:25.893312", "MEAN_MOTION": 13.27786819, "ECCENTRICITY": 0.01894001, "INCLINATION": 90.3214, "RA_OF_ASC_NODE": 16.344, "ARG_OF_PERICENTER": 184.2871, "MEAN_ANOMALY": 247.6118, "EPHEMERIS_TYPE": 0, "CLASSIFICATION_TYPE": "U", "NORAD_CAT_ID": 19070, "ELEMENT_SET_NO": 999, "REV_AT_EPOCH": 82232, "BSTAR": 0.00020977889, "MEAN_MOTION_DOT": 1.13e-06, "MEAN_MOTION_DDOT": 0}, "tle": {"line1": "1 19070U 88033A   25345.17043858  .00000113  00000+0  20978-3 0  9997", "line2": "2 19070  90.3214  16.3440 0189400 184.2871 247.6118 13.27786819822327"}}, "geometry": {"type": "Point", "coordinates": [-163.50747354389773, 21.881120526802658]}}, {"type": "Feature", "properties": {"norad_id": 19071, "name": "OSCAR 32", "group": "nnss", "lat": -89.16484286614873, "lon": 39.17118277457378, "alt_km": 1187.3136707533058, "timestamp": "2025-12-11T18:59:46.341888+00:00", "meta": {"OBJECT_NAME": "OSCAR 32", "OBJECT_ID": "1988-033B", "EPOCH": "2025-12-11T03:29:45.932064", "MEAN_MOTION": 13.27953674, "ECCENTRICITY": 0.01882301, "INCLINATION": 90.3218, "RA_OF_ASC_NODE": 16.4751, "ARG_OF_PERICENTER": 171.2182, "MEAN_ANOMALY": 251.7159, "EPHEMERIS_TYPE": 0, "CLASSIFICATION_TYPE": "U", "NORAD_CAT_ID": 19071, "ELEMENT_SET_NO": 999, "REV_AT_EPOCH": 82244, "BSTAR": 0.00013892497, "MEAN_MOTION_DOT": 7.8e-07, "MEAN_MOTION_DDOT": 0}, "tle": {"line1": "1 19071U 88033B   25345.14567051  .00000078  00000+0  13892-3 0  9998", "line2": "2 19071  90.3218  16.4751 0188230 171.2182 251.7159 13.27953674822448"}}, "geometry": {"type": "Point", "coordinates": [39.17118277457378, -89.16484286614873]}}, {"type": "Feature", "properties": {"norad_id": 19223, "name": "NOVA 2", "group": "nnss", "lat": 56.61515356037344, "lon": -101.74580905015218, "alt_km": 1173.6522485897713, "timestamp": "2025-12-11T18:59:46.341898+00:00", "meta": {"OBJECT_NAME": "NOVA 2", "OBJECT_ID": "1988-052A", "EPOCH": "2025-12-11T07:47:42.595584", "MEAN_MOTION": 13.22935768, "ECCENTRICITY": 0.00307103, "INCLINATION": 89.9872, "RA_OF_ASC_NODE": 78.2742, "ARG_OF_PERICENTER": 20.7579, "MEAN_ANOMALY": 40.7759, "EPHEMERIS_TYPE": 0, "CLASSIFICATION_TYPE": "U", "NORAD_CAT_ID": 19223, "ELEMENT_SET_NO": 999, "REV_AT_EPOCH": 80929, "BSTAR": 0.00020703947, "MEAN_MOTION_DOT": 9.6e-07, "MEAN_MOTION_DDOT": 0}, "tle": {"line1": "1 19223U 88052A   25345.32479856  .00000096  00000+0  20704-3 0  9993", "line2": "2 19223  89.9872  78.2742 0030710  20.7579  40.7759 13.22935768809299"}}, "geometry": {"type": "Point", "coordinates": [-101.74580905015218, 56.61515356037344]}}, {"type": "Feature", "properties": {"norad_id": 19419, "name": "OSCAR 25", "group": "nnss", "lat": 48.827240181685035, "lon": -159.71885622515566, "alt_km": 1127.2653657951305, "timestamp": "2025-12-11T18:59:46.341908+00:00", "meta": {"OBJECT_NAME": "OSCAR 25", "OBJECT_ID": "1988-074A", "EPOCH": "2025-12-11T04:22:38.383680", "MEAN_MOTION": 13.42622894, "ECCENTRICITY": 0.00943864, "INCLINATION": 90.0349, "RA_OF_ASC_NODE": 20.2391, "ARG_OF_PERICENTER": 250.3644, "MEAN_ANOMALY": 179.2935, "EPHEMERIS_TYPE": 0, "CLASSIFICATION_TYPE": "U", "NORAD_CAT_ID": 19419, "ELEMENT_SET_NO": 999, "REV_AT_EPOCH": 82619, "BSTAR": 0.0002141538, "MEAN_MOTION_DOT": 1.33e-06, "MEAN_MOTION_DDOT": 0}, "tle": {"line1": "1 19419U 88074A   25345.18238870  .00000133  00000+0  21415-3 0  9999", "line2": "2 19419  90.0349  20.2391 0094386 250.3644 179.2935 13.42622894826195"}}, "geometry": {"type": "Point", "coordinates": [-159.71885622515566, 48.827240181685035]}}, {"type": "Feature", "properties": {"norad_id": 19420, "name": "OSCAR 31", "group": "nnss", "lat": 16.629613425418498, "lon": 20.580199838151565, "alt_km": 1148.0467832568265, "timestamp": "2025-12-11T18:59:46.341918+00:00", "meta": {"OBJECT_NAME": "OSCAR 31", "OBJECT_ID": "1988-074B", "EPOCH": "2025-12-11T03:05:17.232288", "MEAN_MOTION": 13.42584246, "ECCENTRICITY": 0.00926649, "INCLINATION": 90.0365, "RA_OF_ASC_NODE": 20.5887, "ARG_OF_PERICENTER": 244.6168, "MEAN_ANOMALY": 169.5516, "EPHEMERIS_TYPE": 0, "CLASSIFICATION_TYPE": "U", "NORAD_CAT_ID": 19420, "ELEMENT_SET_NO": 999, "REV_AT_EPOCH": 82629, "BSTAR": 0.00017539016, "MEAN_MOTION_DOT": 1.1e-06, "MEAN_MOTION_DDOT": 0}, "tle": {"line1": "1 19420U 88074B   25345.12867167  .00000110  00000+0  17539-3 0  9999", "line2": "2 19420  90.0365  20.5887 0092664 244.6168 169.5516 13.42584246826298"}}, "geometry": {"type": "Point", "coordinates": [20.580199838151565, 16.629613425418498]}}]}